satname,norad_id,inclination_deg,eccentricity,mean_motion_rev_per_day,perigee_km,apogee_km,l1,l2
STARLINK-1234,45190,53.0398,0.0007324,15.71351132,350.10317183261395,359.9659215141801,1 45190U 20012N   26137.00390841  .00058657  00000+0  45288-3 0  9998,2 45190  53.0398 348.7655 0007324 151.3896 208.7524 15.71351132346590
STARLINK-1269,45197,53.1566,0.0003085,15.33111793,464.4231623992546,468.64632486507617,1 45197U 20012V   26137.81100514  .00022953  00000+0  71682-3 0  9997,2 45197  53.1566  78.0885 0003085  63.6259 296.5059 15.33111793345504
STARLINK-1154,45198,53.0392,0.0002684,15.56719925,395.33913428857795,398.9761124423994,1 45198U 20012W   26137.73267088  .00050216  00000+0  69273-3 0  9995,2 45198  53.0392  37.8267 0002684  48.3595 311.7645 15.56719925346019
STARLINK-1199,45201,53.1593,0.0002903,15.33046989,464.74056718237443,468.7146955873568,1 45201U 20012Z   26137.52080693  .00017633  00000+0  55486-3 0  9999,2 45201  53.1593  63.7042 0002903 103.9921 256.1404 15.33046989345700
STARLINK-1209,45206,53.0407,0.0010454,15.627398,372.68220310402285,386.8115867515371,1 45206U 20012AE  26137.60421182  .00056412  00000+0  61649-3 0  9991,2 45206  53.0407 359.0990 0010454 146.2382 213.9299 15.62739800345652
STARLINK-1231,45212,53.0367,0.0004095,15.26417167,483.7221641833312,489.3443291153362,1 45212U 20012AL  26137.80186586  .00019752  00000+0  75962-3 0  9995,2 45212  53.0367  56.9268 0004095  41.0996 319.0310 15.26417167345765
STARLINK-1271,45217,53.1589,0.0002198,15.33128631,464.98018006705206,467.9890757346766,1 45217U 20012AR  26137.06433044  .00024139  00000+0  75278-3 0  9997,2 45217  53.1589  65.9806 0002198  86.8104 273.3149 15.33128631345636
STARLINK-1191,45222,53.1553,0.0004527,15.36894577,452.2053658296072,458.3923586592837,1 45222U 20012AW  26137.74922782  .00023107  00000+0  63986-3 0  9997,2 45222  53.1553  36.3689 0004527 115.6067 244.5405 15.36894577346112
STARLINK-1212,45223,53.0416,0.0004242,15.64914942,370.61935870685284,376.34743345088646,1 45223U 20012AX  26137.83359873  .00033424  00000+0  33924-3 0  9995,2 45223  53.0416  13.8058 0004242  89.1554 270.9946 15.64914942346427
STARLINK-1215,45225,53.1587,0.0002486,15.33297543,464.2804899573248,467.6833858932605,1 45225U 20012AZ  26137.71671804  .00018270  00000+0  56996-3 0  9991,2 45225  53.1587  37.2159 0002486 133.7060 226.4148 15.33297543346053
STARLINK-1221,45227,53.0647,0.0002247,15.44138038,432.38128757035975,435.44262237072235,1 45227U 20012BB  26137.82303807  .00010292  00000+0  23000-3 0  9996,2 45227  53.0647 301.4134 0002247 197.6717 162.4211 15.44138038347385
STARLINK-1222,45228,53.0538,8.76e-05,15.5367936,405.399995976195,406.5885757774804,1 45228U 20012BC  26137.66909286  .00022467  00000+0  35175-3 0  9995,2 45228  53.0538  11.0271 0000876  62.2323 297.8775 15.53679360346337
STARLINK-1226,45229,53.1569,0.0003374,15.41647746,438.94499155141057,443.54671109948504,1 45229U 20012BD  26137.73374685  .00027611  00000+0  65261-3 0  9998,2 45229  53.1569  34.4748 0003374 124.9928 235.1395 15.41647746346034
STARLINK-1227,45230,53.1556,0.0004036,15.41763754,438.15160514336003,443.65593485290265,1 45230U 20012BE  26137.68037288  .00027405  00000+0  64528-3 0  9995,2 45230  53.1556  34.8556 0004036 125.3709 234.7674 15.41763754346146
STARLINK-1246,45235,53.1595,0.0003829,15.33223356,463.5820128488549,468.8234081991732,1 45235U 20012BK  26137.81838926  .00018897  00000+0  59039-3 0  9999,2 45235  53.1595  77.6852 0003829 113.2054 246.9352 15.33223356345569
STARLINK-1270,45237,53.0408,0.0004492,15.58161637,389.9360998099728,396.0192692425517,1 45237U 20012BM  26137.38631778  .00041506  00000+0  54419-3 0  9999,2 45237  53.0408  16.4879 0004492 113.8948 246.2535 15.58161637346341
STARLINK-1279,45360,53.0357,0.0009317,15.71494162,348.35307747926163,360.8989080399697,1 45360U 20019A   26137.68215549  .00046928  00000+0  36126-3 0  9998,2 45360  53.0357 120.2032 0009317  39.8866 320.2834 15.71494162341474
STARLINK-1301,45361,53.0369,0.0006597,15.737051,343.88105349982743,352.7559388815007,1 45361U 20019B   26137.37334944  .00050539  00000+0  35417-3 0  9991,2 45361  53.0369 124.7289 0006597  57.1807 302.9845 15.73705100341395
STARLINK-1262,45366,53.1547,0.0003263,15.3219444,467.0321839260241,471.5007994446978,1 45366U 20019G   26137.44914898  .00016154  00000+0  52306-3 0  9997,2 45366  53.1547 205.7159 0003263   6.2351 353.8690 15.32194440340285
STARLINK-1273,45367,53.0447,0.0006152,15.54118236,400.54420852139447,408.8898321079896,1 45367U 20019H   26137.42573374  .00039203  00000+0  59710-3 0  9992,2 45367  53.0447 185.2761 0006152 344.7934  15.2890 15.54118236340556
STARLINK-1277,45369,53.0428,0.0006507,15.60395029,382.1133895553612,390.91690786169056,1 45369U 20019K   26137.53297399  .00042371  00000+0  51010-3 0  9991,2 45369  53.0428 179.8079 0006507 335.7580  24.3126 15.60395029340646
STARLINK-1281,45370,53.1558,0.0004223,15.33119848,463.62027428951296,469.40126379524645,1 45370U 20019L   26137.60395313  .00018640  00000+0  58441-3 0  9993,2 45370  53.1558 204.7553 0004223   4.1739 355.9298 15.33119848340314
STARLINK-1300,45374,53.1585,0.0004779,15.33565841,461.9132373465309,468.4540832336361,1 45374U 20019Q   26137.55688145  .00036493  00000+0  11147-2 0  9996,2 45374  53.1585 204.9413 0004779  23.1707 336.9510 15.33565841340300
STARLINK-1302,45375,53.0445,0.0005107,15.65125477,369.43017020283605,376.32565683550365,1 45375U 20019R   26137.51782099  .00028853  00000+0  29129-3 0  9997,2 45375  53.0445 176.5609 0005107   2.9618 357.1426 15.65125477340682
STARLINK-1304,45376,53.0422,0.0006295,15.59771747,384.0576411051834,392.57660684726943,1 45376U 20019S   26137.83725255  .00060116  00000+0  73691-3 0  9995,2 45376  53.0422 175.5702 0006295   1.8811 358.2224 15.59771747340726
STARLINK-1305,45377,53.037,0.0010607,15.65436966,364.8224923344469,379.14219551064434,1 45377U 20019T   26137.33029110  .00032536  00000+0  32293-3 0  9996,2 45377  53.0370 157.9134 0010607   6.3235 353.7912 15.65436966340939
STARLINK-1319,45379,53.0389,0.0005135,15.73889892,344.33821473924127,351.24574380095146,1 45379U 20019V   26137.75817447  .00047254  00000+0  32910-3 0  9991,2 45379  53.0389 148.3984 0005135  23.0566 337.0682 15.73889892341109
STARLINK-1266,45383,53.0433,0.0005763,15.55915186,395.58765218953613,403.3995492199083,1 45383U 20019Z   26137.48176763  .00040796  00000+0  58148-3 0  9990,2 45383  53.0433 162.3911 0005763 350.6826   9.4077 15.55915186340872
STARLINK-1267,45384,53.0434,0.000766,15.61946392,376.85690406156937,387.2134878657871,1 45384U 20019AA  26137.34412603  .00049877  00000+0  56395-3 0  9993,2 45384  53.0434 154.5477 0007660  30.5314 329.6143 15.61946392340970
STARLINK-1272,45386,53.0387,0.0008707,15.67202996,361.0374852303885,372.783310769265,1 45386U 20019AC  26137.36430534  .00038267  00000+0  35301-3 0  9995,2 45386  53.0387 133.9546 0008707  24.1452 335.9969 15.67202996341262
STARLINK-1274,45387,53.0207,0.0009555,15.57855752,387.39334755222626,400.33464145272137,1 45387U 20019AD  26137.40020508  .00051150  00000+0  67500-3 0  9999,2 45387  53.0207 131.6817 0009555  46.8607 313.3201 15.57855752341290
STARLINK-1280,45388,53.0363,0.0006056,15.74533184,341.8877756738775,350.03200182553155,1 45388U 20019AE  26137.71464090  .00049359  00000+0  33401-3 0  9993,2 45388  53.0363 141.0982 0006056  32.6023 327.5368 15.74533184341180
STARLINK-1283,45389,53.0383,0.0004563,15.68393773,360.41971504833054,366.5721292530852,1 45389U 20019AF  26137.27221132  .00039204  00000+0  34489-3 0  9998,2 45389  53.0383 133.6998 0004563  48.6629 311.4778 15.68393773341264
STARLINK-1284,45390,53.0391,0.0005073,15.67453716,362.7697177069567,369.61251301280026,1 45390U 20019AG  26137.46590807  .00033886  00000+0  31058-3 0  9998,2 45390  53.0391 156.4539 0005073 341.1186  18.9641 15.67453716340951
STARLINK-1297,45395,53.0404,0.0006843,15.65923488,365.9659768930678,375.20227662715206,1 45395U 20019AM  26137.84158122  .00033986  00000+0  33107-3 0  9993,2 45395  53.0404 153.3864 0006843 350.6585   9.4301 15.65923488340215
STARLINK-1307,45397,53.0509,0.0002438,15.55095988,400.22065186427335,403.5265850418318,1 45397U 20019AP  26137.48712386  .00017115  00000+0  25636-3 0  9997,2 45397  53.0509 159.2648 0002438  33.3331 326.7832 15.55095988340744
STARLINK-1255,45399,53.0344,0.0006925,15.62826355,374.8177133824274,384.1770369920623,1 45399U 20019AR  26137.38962059  .00049166  00000+0  53749-3 0  9999,2 45399  53.0344 128.9971 0006925  36.7666 323.3821 15.62826355341142
STARLINK-1260,45404,53.1557,0.0005809,15.35721206,454.8075885347471,462.750717721452,1 45404U 20019AW  26137.81487225  .00025436  00000+0  72985-3 0  9998,2 45404  53.1557 166.8927 0005809  13.7247 346.3913 15.35721206340570
STARLINK-1263,45405,53.1565,0.0004315,15.33212054,463.28299853460794,469.1896927318885,1 45405U 20019AX  26137.81393253  .00020340  00000+0  63468-3 0  9991,2 45405  53.1565 167.7556 0004315  32.1593 327.9672 15.33212054340568
STARLINK-1265,45406,53.1559,0.0005517,15.36074367,453.9598412035921,461.50253816408895,1 45406U 20019AY  26137.81250113  .00024412  00000+0  69316-3 0  9991,2 45406  53.1559 166.9486 0005517   6.6104 353.4971 15.36074367340577
STARLINK-1278,45408,53.0387,0.0006988,15.66711733,363.6058986283597,373.0347473829934,1 45408U 20019BA  26137.75248843  .00030706  00000+0  29044-3 0  9990,2 45408  53.0387 152.9000 0006988  10.6865 349.4297 15.66711733340750
STARLINK-1296,45412,53.1546,0.0006314,15.36273321,452.8251995390192,461.45678858992324,1 45412U 20019BE  26137.79000404  .00020707  00000+0  58607-3 0  9995,2 45412  53.1546 166.7790 0006314   4.5814 355.5246 15.36273321340576
STARLINK-1309,45414,53.0593,0.0006723,15.65997034,365.8358025105699,374.9098488221607,1 45414U 20019BG  26137.31456630  .00032484  00000+0  31583-3 0  9990,2 45414  53.0593 148.8123 0006723 348.2409  11.8448 15.65997034340754
